NUSHSAT1                
1 63211U 25052B   26068.64700493  .00023034  00000+0  74857-3 0  9997
2 63211  97.4095 325.7239 0005501  84.7512 275.4357 15.31903202 54882
STARLINK-34797          
1 65363U 25190N   26068.55621888  .00027437  00000+0  93574-3 0  9998
2 65363  53.1581 168.8777 0001077  81.7287 278.3835 15.30177206 29739
